ICEYE-X40               
1 60549U 24149CK  26193.75245365  .00001336  00000+0  11788-3 0  9992
2 60549  97.6800 269.8364 0004271  12.3091 347.8235 14.98059522103904
ICEYE-X49               
1 62384U 24247H   26194.44042813  .00001480  00000+0  95125-4 0  9998
2 62384  44.9963 217.1632 0001421 241.3726 118.7009 15.13608718 86151
ICEYE-X47               
1 62389U 24247N   26194.48227619  .00001090  00000+0  74006-4 0  9998
2 62389  44.9949 216.5337 0001609 338.0581  22.0227 15.13481140 86164
ICEYE-X42               
1 62698U 25009CT  26194.76767316  .00001170  00000+0  12131-3 0  9991
2 62698  97.7391 272.6035 0001299  97.4672 262.6694 14.91850984 81250
ICEYE-X41               
1 62700U 25009CV  26194.80985259  .00001429  00000+0  12951-3 0  9995
2 62700  97.7061 273.9502 0000364 316.7343  43.3850 14.96908107 81394
ICEYE-X45               
1 62705U 25009DA  26194.79782773  .00001436  00000+0  11782-3 0  9993
2 62705  97.8407 281.7039 0001103  80.0478 280.0870 15.00848172 81672
ICEYE-X44               
1 62707U 25009DC  26194.77145221  .00002218  00000+0  20200-3 0  9998
2 62707  97.7061 273.4776 0002648  76.5053 283.6463 14.96162725103915
ICEYE-X48               
1 63253U 25052AV  26194.70758825  .00001705  00000+0  14887-3 0  9990
2 63253  97.6839  86.4877 0003858 107.8564 252.3079 14.98120226 72640
ICEYE-X50               
1 63255U 25052AX  26194.85762821  .00001098  00000+0  10465-3 0  9992
2 63255  97.6860  86.2375 0003449 104.4502 255.7102 14.95362990 72634
ICEYE-X51               
1 63257U 25052AZ  26194.85877525  .00002586  00000+0  20803-3 0  9992
2 63257  97.7608  89.9061 0002024  69.3088 290.8353 15.00878398 72803
ICEYE-X46               
1 63258U 25052BA  26194.65361076  .00001334  00000+0  12599-3 0  9993
2 63258  97.6861  86.0363 0001711  83.4782 276.6633 14.95363790 72606
ICEYE-X54               
1 64570U 25135AU  26194.87035126  .00001834  00000+0  17416-3 0  9999
2 64570  97.7745 309.0384 0001972 184.7857 175.3345 14.94727833 57883
ICEYE-X52               
1 64572U 25135AW  26194.86725359  .00001226  00000+0  12145-3 0  9993
2 64572  97.7767 308.8264 0001140 192.3712 167.7480 14.93649690 57861
ICEYE-X56               
1 64574U 25135AY  26194.85869019  .00001894  00000+0  17517-3 0  9995
2 64574  97.7764 309.6123 0001294 197.7355 162.3820 14.95756507 57918
ICEYE-X57               
1 64578U 25135BC  26194.86791542  .00002565  00000+0  20655-3 0  9998
2 64578  97.8021 311.4175 0002123  60.4138 299.7297 15.00854506 58025
ICEYE-X55               
1 64581U 25135BF  26194.86579406  .00002040  00000+0  19010-3 0  9996
2 64581  97.7765 309.4459 0001840 240.7242 119.3795 14.95357126 57904
