{"fetched_at":"2026-07-14T06:34:49.463Z","source":"https://celestrak.org/NORAD/elements/gp.php?NAME=ICEYE&FORMAT=JSON","constellation":"iceye","records":[{"OBJECT_NAME":"ICEYE-X40","OBJECT_ID":"2024-149CK","EPOCH":"2026-07-12T18:03:31.995360","CLASSIFICATION_TYPE":"U","MEAN_MOTION":14.98059522,"ECCENTRICITY":0.0004271,"INCLINATION":97.68,"RA_OF_ASC_NODE":269.8364,"ARG_OF_PERICENTER":12.3091,"MEAN_ANOMALY":347.8235,"EPHEMERIS_TYPE":0,"NORAD_CAT_ID":60549,"ELEMENT_SET_NO":999,"REV_AT_EPOCH":10390,"BSTAR":0.00011788,"MEAN_MOTION_DOT":0.00001336,"MEAN_MOTION_DDOT":0},{"OBJECT_NAME":"ICEYE-X49","OBJECT_ID":"2024-247H","EPOCH":"2026-07-13T10:34:12.990432","CLASSIFICATION_TYPE":"U","MEAN_MOTION":15.13608718,"ECCENTRICITY":0.00014215,"INCLINATION":44.9963,"RA_OF_ASC_NODE":217.1632,"ARG_OF_PERICENTER":241.3726,"MEAN_ANOMALY":118.7009,"EPHEMERIS_TYPE":0,"NORAD_CAT_ID":62384,"ELEMENT_SET_NO":999,"REV_AT_EPOCH":8615,"BSTAR":0.000095124861,"MEAN_MOTION_DOT":0.0000148,"MEAN_MOTION_DDOT":0},{"OBJECT_NAME":"ICEYE-X47","OBJECT_ID":"2024-247N","EPOCH":"2026-07-13T11:34:28.662816","CLASSIFICATION_TYPE":"U","MEAN_MOTION":15.1348114,"ECCENTRICITY":0.00016099,"INCLINATION":44.9949,"RA_OF_ASC_NODE":216.5337,"ARG_OF_PERICENTER":338.0581,"MEAN_ANOMALY":22.0227,"EPHEMERIS_TYPE":0,"NORAD_CAT_ID":62389,"ELEMENT_SET_NO":999,"REV_AT_EPOCH":8616,"BSTAR":0.000074006403,"MEAN_MOTION_DOT":0.0000109,"MEAN_MOTION_DDOT":0},{"OBJECT_NAME":"ICEYE-X42","OBJECT_ID":"2025-009CT","EPOCH":"2026-07-13T18:25:26.961024","CLASSIFICATION_TYPE":"U","MEAN_MOTION":14.91850984,"ECCENTRICITY":0.0001299,"INCLINATION":97.7391,"RA_OF_ASC_NODE":272.6035,"ARG_OF_PERICENTER":97.4672,"MEAN_ANOMALY":262.6694,"EPHEMERIS_TYPE":0,"NORAD_CAT_ID":62698,"ELEMENT_SET_NO":999,"REV_AT_EPOCH":8125,"BSTAR":0.00012131,"MEAN_MOTION_DOT":0.0000117,"MEAN_MOTION_DDOT":0},{"OBJECT_NAME":"ICEYE-X41","OBJECT_ID":"2025-009CV","EPOCH":"2026-07-13T19:26:11.263776","CLASSIFICATION_TYPE":"U","MEAN_MOTION":14.96908107,"ECCENTRICITY":0.0000364,"INCLINATION":97.7061,"RA_OF_ASC_NODE":273.9502,"ARG_OF_PERICENTER":316.7343,"MEAN_ANOMALY":43.385,"EPHEMERIS_TYPE":0,"NORAD_CAT_ID":62700,"ELEMENT_SET_NO":999,"REV_AT_EPOCH":8139,"BSTAR":0.00012951,"MEAN_MOTION_DOT":0.00001429,"MEAN_MOTION_DDOT":0},{"OBJECT_NAME":"ICEYE-X45","OBJECT_ID":"2025-009DA","EPOCH":"2026-07-13T19:08:52.315872","CLASSIFICATION_TYPE":"U","MEAN_MOTION":15.00848172,"ECCENTRICITY":0.0001103,"INCLINATION":97.8407,"RA_OF_ASC_NODE":281.7039,"ARG_OF_PERICENTER":80.0478,"MEAN_ANOMALY":280.087,"EPHEMERIS_TYPE":0,"NORAD_CAT_ID":62705,"ELEMENT_SET_NO":999,"REV_AT_EPOCH":8167,"BSTAR":0.00011782,"MEAN_MOTION_DOT":0.00001436,"MEAN_MOTION_DDOT":0},{"OBJECT_NAME":"ICEYE-X44","OBJECT_ID":"2025-009DC","EPOCH":"2026-07-13T18:30:53.470944","CLASSIFICATION_TYPE":"U","MEAN_MOTION":14.96162725,"ECCENTRICITY":0.0002648,"INCLINATION":97.7061,"RA_OF_ASC_NODE":273.4776,"ARG_OF_PERICENTER":76.5053,"MEAN_ANOMALY":283.6463,"EPHEMERIS_TYPE":0,"NORAD_CAT_ID":62707,"ELEMENT_SET_NO":999,"REV_AT_EPOCH":10391,"BSTAR":0.000202,"MEAN_MOTION_DOT":0.00002218,"MEAN_MOTION_DDOT":0},{"OBJECT_NAME":"ICEYE-X48","OBJECT_ID":"2025-052AV","EPOCH":"2026-07-13T16:58:55.624800","CLASSIFICATION_TYPE":"U","MEAN_MOTION":14.98120226,"ECCENTRICITY":0.0003858,"INCLINATION":97.6839,"RA_OF_ASC_NODE":86.4877,"ARG_OF_PERICENTER":107.8564,"MEAN_ANOMALY":252.3079,"EPHEMERIS_TYPE":0,"NORAD_CAT_ID":63253,"ELEMENT_SET_NO":999,"REV_AT_EPOCH":7264,"BSTAR":0.00014887,"MEAN_MOTION_DOT":0.00001705,"MEAN_MOTION_DDOT":0},{"OBJECT_NAME":"ICEYE-X50","OBJECT_ID":"2025-052AX","EPOCH":"2026-07-13T20:34:59.077344","CLASSIFICATION_TYPE":"U","MEAN_MOTION":14.9536299,"ECCENTRICITY":0.0003449,"INCLINATION":97.686,"RA_OF_ASC_NODE":86.2375,"ARG_OF_PERICENTER":104.4502,"MEAN_ANOMALY":255.7102,"EPHEMERIS_TYPE":0,"NORAD_CAT_ID":63255,"ELEMENT_SET_NO":999,"REV_AT_EPOCH":7263,"BSTAR":0.00010465,"MEAN_MOTION_DOT":0.00001098,"MEAN_MOTION_DDOT":0},{"OBJECT_NAME":"ICEYE-X51","OBJECT_ID":"2025-052AZ","EPOCH":"2026-07-13T20:36:38.181600","CLASSIFICATION_TYPE":"U","MEAN_MOTION":15.00878398,"ECCENTRICITY":0.0002024,"INCLINATION":97.7608,"RA_OF_ASC_NODE":89.9061,"ARG_OF_PERICENTER":69.3088,"MEAN_ANOMALY":290.8353,"EPHEMERIS_TYPE":0,"NORAD_CAT_ID":63257,"ELEMENT_SET_NO":999,"REV_AT_EPOCH":7280,"BSTAR":0.00020803,"MEAN_MOTION_DOT":0.00002586,"MEAN_MOTION_DDOT":0},{"OBJECT_NAME":"ICEYE-X46","OBJECT_ID":"2025-052BA","EPOCH":"2026-07-13T15:41:11.969664","CLASSIFICATION_TYPE":"U","MEAN_MOTION":14.9536379,"ECCENTRICITY":0.0001711,"INCLINATION":97.6861,"RA_OF_ASC_NODE":86.0363,"ARG_OF_PERICENTER":83.4782,"MEAN_ANOMALY":276.6633,"EPHEMERIS_TYPE":0,"NORAD_CAT_ID":63258,"ELEMENT_SET_NO":999,"REV_AT_EPOCH":7260,"BSTAR":0.00012599,"MEAN_MOTION_DOT":0.00001334,"MEAN_MOTION_DDOT":0},{"OBJECT_NAME":"ICEYE-X54","OBJECT_ID":"2025-135AU","EPOCH":"2026-07-13T20:53:18.348864","CLASSIFICATION_TYPE":"U","MEAN_MOTION":14.94727833,"ECCENTRICITY":0.0001972,"INCLINATION":97.7745,"RA_OF_ASC_NODE":309.0384,"ARG_OF_PERICENTER":184.7857,"MEAN_ANOMALY":175.3345,"EPHEMERIS_TYPE":0,"NORAD_CAT_ID":64570,"ELEMENT_SET_NO":999,"REV_AT_EPOCH":5788,"BSTAR":0.00017416,"MEAN_MOTION_DOT":0.00001834,"MEAN_MOTION_DDOT":0},{"OBJECT_NAME":"ICEYE-X52","OBJECT_ID":"2025-135AW","EPOCH":"2026-07-13T20:48:50.710176","CLASSIFICATION_TYPE":"U","MEAN_MOTION":14.9364969,"ECCENTRICITY":0.000114,"INCLINATION":97.7767,"RA_OF_ASC_NODE":308.8264,"ARG_OF_PERICENTER":192.3712,"MEAN_ANOMALY":167.748,"EPHEMERIS_TYPE":0,"NORAD_CAT_ID":64572,"ELEMENT_SET_NO":999,"REV_AT_EPOCH":5786,"BSTAR":0.00012145,"MEAN_MOTION_DOT":0.00001226,"MEAN_MOTION_DDOT":0},{"OBJECT_NAME":"ICEYE-X56","OBJECT_ID":"2025-135AY","EPOCH":"2026-07-13T20:36:30.832416","CLASSIFICATION_TYPE":"U","MEAN_MOTION":14.95756507,"ECCENTRICITY":0.0001294,"INCLINATION":97.7764,"RA_OF_ASC_NODE":309.6123,"ARG_OF_PERICENTER":197.7355,"MEAN_ANOMALY":162.382,"EPHEMERIS_TYPE":0,"NORAD_CAT_ID":64574,"ELEMENT_SET_NO":999,"REV_AT_EPOCH":5791,"BSTAR":0.00017517,"MEAN_MOTION_DOT":0.00001894,"MEAN_MOTION_DDOT":0},{"OBJECT_NAME":"ICEYE-X57","OBJECT_ID":"2025-135BC","EPOCH":"2026-07-13T20:49:47.892288","CLASSIFICATION_TYPE":"U","MEAN_MOTION":15.00854506,"ECCENTRICITY":0.0002123,"INCLINATION":97.8021,"RA_OF_ASC_NODE":311.4175,"ARG_OF_PERICENTER":60.4138,"MEAN_ANOMALY":299.7297,"EPHEMERIS_TYPE":0,"NORAD_CAT_ID":64578,"ELEMENT_SET_NO":999,"REV_AT_EPOCH":5802,"BSTAR":0.00020655,"MEAN_MOTION_DOT":0.00002565,"MEAN_MOTION_DDOT":0},{"OBJECT_NAME":"ICEYE-X55","OBJECT_ID":"2025-135BF","EPOCH":"2026-07-13T20:46:44.606784","CLASSIFICATION_TYPE":"U","MEAN_MOTION":14.95357126,"ECCENTRICITY":0.000184,"INCLINATION":97.7765,"RA_OF_ASC_NODE":309.4459,"ARG_OF_PERICENTER":240.7242,"MEAN_ANOMALY":119.3795,"EPHEMERIS_TYPE":0,"NORAD_CAT_ID":64581,"ELEMENT_SET_NO":999,"REV_AT_EPOCH":5790,"BSTAR":0.0001901,"MEAN_MOTION_DOT":0.0000204,"MEAN_MOTION_DDOT":0}]}
